NORAD_CAT_ID,OBJECT_NAME,OBJECT_TYPE,EPOCH,MEAN_MOTION,ECCENTRICITY,INCLINATION,RA_OF_ASC_NODE,ARG_OF_PERICENTER,MEAN_ANOMALY,BSTAR,MEAN_MOTION_DOT,MEAN_MOTION_DDOT,TLE_LINE0,TLE_LINE1,TLE_LINE2,SEMIMAJOR_AXIS,PERIOD,APOGEE,PERIGEE,DECAYED
53712.0,STARLINK-4683,PAYLOAD,2022-10-04 06:00:00,15.73292114,0.0001381,53.2141,128.8302,142.257,249.3007,-0.00062682,-0.00088021,0.0,0 STARLINK-4683,1 53712U 22107N   22277.25001157 -.00088021  00000-0 -62682-3 0  9999,2 53712  53.2141 128.8302 0001381 142.2570 249.3007 15.73292114  4716,6727.6330000000025,91.528,350.427,348.5680000000001,0.0
53712.0,STARLINK-4683,PAYLOAD,2022-10-04 14:00:01,15.73215382,0.0001594,53.2143,127.1796,146.0014,334.547,-0.00038054,-0.00053723,0.0,0 STARLINK-4683,1 53712U 22107N   22277.58334491 -.00053723  00000-0 -38054-3 0  9992,2 53712  53.2143 127.1796 0001594 146.0014 334.5470 15.73215382  1303,6727.851,91.532,350.789,348.644,0.0
53712.0,STARLINK-4683,PAYLOAD,2022-10-04 22:00:00,15.73142898,0.0001399,53.2142,125.5322,133.8401,75.6419,-3.2886e-05,-5.221e-05,0.0,0 STARLINK-4683,1 53712U 22107N   22277.91667824 -.00005221  00000-0 -32886-4 0  9996,2 53712  53.2142 125.5322 0001399 133.8401  75.6419 15.73142898  1303,6728.058000000001,91.537,350.86400000000015,348.982,0.0
53712.0,STARLINK-4683,PAYLOAD,2022-10-05 08:00:01,15.73165426,0.0001568,53.2153,123.4685,137.9885,272.5707,-7.4856e-05,-0.00011096,0.0,0 STARLINK-4683,1 53712U 22107N   22278.33334491 -.00011096  00000-0 -74856-4 0  9994,2 53712  53.2153 123.4685 0001568 137.9885 272.5707 15.73165426  4889,6727.994000000002,91.535,350.914,348.80400000000014,0.0
53712.0,STARLINK-4683,PAYLOAD,2022-10-05 14:00:01,15.73137858,0.0001696,53.2146,122.2311,135.0769,252.1771,0.00045213,0.00063144,0.0,0 STARLINK-4683,1 53712U 22107N   22278.58335648  .00063144  00000-0  45213-3 0  9999,2 53712  53.2146 122.2311 0001696 135.0769 252.1771 15.73137858  1303,6728.071999999999,91.537,351.07800000000015,348.796,0.0
53712.0,STARLINK-4683,PAYLOAD,2022-10-05 22:00:00,15.73135733,0.0001353,53.2149,120.5841,131.9231,344.1567,0.00036153,0.00050283,0.0,0 STARLINK-4683,1 53712U 22107N   22278.91667824  .00050283  00000-0  36153-3 0  9993,2 53712  53.2149 120.5841 0001353 131.9231 344.1567 15.73135733  1309,6728.078,91.537,350.85400000000016,349.033,0.0
53712.0,STARLINK-4683,PAYLOAD,2022-10-06 06:00:00,15.73235706,0.000134,53.2141,118.933,138.4648,66.5026,-0.00014906,-0.00021518,0.0,0 STARLINK-4683,1 53712U 22107N   22279.25001157 -.00021518  00000-0 -14906-3 0  9995,2 53712  53.2141 118.9330 0001340 138.4648  66.5026 15.73235706  5024,6727.793000000002,91.531,350.56,348.75699999999995,0.0
53712.0,STARLINK-4683,PAYLOAD,2022-10-06 14:00:01,15.73213611,0.0001474,53.2142,117.2829,140.9468,152.9715,0.00018813,0.00025879,0.0,0 STARLINK-4683,1 53712U 22107N   22279.58334491  .00025879  00000-0  18813-3 0  9994,2 53712  53.2142 117.2829 0001474 140.9468 152.9715 15.73213611  1309,6727.856,91.532,350.713,348.73,0.0
53712.0,STARLINK-4683,PAYLOAD,2022-10-06 22:42:55,15.7318702,0.0001135,53.214,115.4879,136.2488,55.463,0.00069306,0.0009773,0.0,0 STARLINK-4683,1 53712U 22107N   22279.94646991  .00097730  00000-0  69306-3 0  9993,2 53712  53.2140 115.4879 0001135 136.2488  55.4630 15.73187020  1303,6727.932,91.534,350.561,349.034,0.0
53712.0,STARLINK-4683,PAYLOAD,2022-10-07 06:00:00,15.73271371,0.0001163,53.2139,113.9841,142.7685,329.0676,-0.00058208,-0.00081768,0.0,0 STARLINK-4683,1 53712U 22107N   22280.25001157 -.00081768  00000-0 -58208-3 0  9993,2 53712  53.2139 113.9841 0001163 142.7685 329.0676 15.73271371  5188,6727.691999999999,91.529,350.339,348.774,0.0
53712.0,STARLINK-4683,PAYLOAD,2022-10-07 14:00:01,15.73239881,0.0001341,53.2146,112.3333,141.6597,59.151,-0.00022171,-0.00031672,0.0,0 STARLINK-4683,1 53712U 22107N   22280.58334491 -.00031672  00000-0 -22171-3 0  9998,2 53712  53.2146 112.3333 0001341 141.6597  59.1510 15.73239881  1301,6727.781,91.531,350.5490000000001,348.744,0.0
53712.0,STARLINK-4683,PAYLOAD,2022-10-07 22:00:00,15.73164777,0.0001262999999999,53.214,110.686,120.0986,169.6736,0.00023666,0.00032673,0.0,0 STARLINK-4683,1 53712U 22107N   22280.91667824  .00032673  00000-0  23666-3 0  9994,2 53712  53.2140 110.6860 0001263 120.0986 169.6736 15.73164777  5286,6727.996,91.535,350.71,349.011,0.0
53712.0,STARLINK-4683,PAYLOAD,2022-10-08 06:00:00,15.73191226,0.0001195,53.2172,109.0349,126.061,252.5271,0.0001633,0.0002234999999999,0.0,0 STARLINK-4683,1 53712U 22107N   22281.25001157  .00022350  00000-0  16330-3 0  9994,2 53712  53.2172 109.0349 0001195 126.0610 252.5271 15.73191226  5341,6727.92,91.534,350.589,348.981,0.0
53712.0,STARLINK-4683,PAYLOAD,2022-10-08 14:00:01,15.7303044,0.0001345,53.2165,107.3844,130.8089,336.8064,0.0018294,0.00262397,0.0,0 STARLINK-4683,1 53712U 22107N   22281.58334491  .00262397  00000-0  18294-2 0  9997,2 53712  53.2165 107.3844 0001345 130.8089 336.8064 15.73030440  1302,6728.379,91.543,351.149,349.339,0.0
53712.0,STARLINK-4683,PAYLOAD,2022-10-08 22:00:00,15.7317946,0.0001202,53.2134,105.737,115.9444,80.6208,0.00029094,0.00040372,0.0,0 STARLINK-4683,1 53712U 22107N   22281.91667824  .00040372  00000-0  29094-3 0  9991,2 53712  53.2134 105.7370 0001202 115.9444  80.6208 15.73179460  5444,6727.954000000002,91.534,350.62699999999984,349.01,0.0
53712.0,STARLINK-4683,PAYLOAD,2022-10-09 14:00:01,15.73285461,0.0001330999999999,53.2137,102.4357,120.1945,254.2228,-0.00036059,-0.00051105,0.0,0 STARLINK-4683,1 53712U 22107N   22282.58334491 -.00051105  00000-0 -36059-3 0  9993,2 53712  53.2137 102.4357 0001331 120.1945 254.2228 15.73285461  1304,6727.651999999999,91.528,350.412,348.621,0.0
53712.0,STARLINK-4683,PAYLOAD,2022-10-09 22:00:00,15.73235839,0.0001186,53.2137,100.7877,105.543,357.8906,-0.00046934,-0.00066073,0.0,0 STARLINK-4683,1 53712U 22107N   22282.91667824 -.00066073  00000-0 -46934-3 0  9992,2 53712  53.2137 100.7877 0001186 105.5430 357.8906 15.73235839  5600,6727.793000000002,91.531,350.456,348.86,0.0
53712.0,STARLINK-4683,PAYLOAD,2022-10-10 14:00:01,15.73233139,0.0001313,53.2156,97.4867,118.8436,162.4057,-0.0015798,-0.0021701999999999,0.0,0 STARLINK-4683,1 53712U 22107N   22283.58334491 -.00217020  00000-0 -15798-2 0  9990,2 53712  53.2156  97.4867 0001313 118.8436 162.4057 15.73233139  1308,6727.801,91.531,350.5490000000001,348.782,0.0
53712.0,STARLINK-4683,PAYLOAD,2022-10-10 22:00:01,15.7325155,0.0001095999999999,53.2156,95.8398,112.9475,257.3807,-0.0027053,-0.00365069,0.0,0 STARLINK-4683,1 53712U 22107N   22283.91668981 -.00365069  00000-0 -27053-2 0  9995,2 53712  53.2156  95.8398 0001096 112.9475 257.3807 15.73251550  5763,6727.748000000001,91.53,350.351,348.876,0.0
53712.0,STARLINK-4683,PAYLOAD,2022-10-11 06:00:00,15.73116202,0.0001190999999999,53.2141,94.1874,107.9381,351.1812,0.00062101,0.00087129,0.0,0 STARLINK-4683,1 53712U 22107N   22284.25001157  .00087129  00000-0  62101-3 0  9999,2 53712  53.2141  94.1874 0001191 107.9381 351.1812 15.73116202  5813,6728.134,91.538,350.8,349.1980000000001,0.0
53712.0,STARLINK-4683,PAYLOAD,2022-10-11 14:00:01,15.73198607,0.0001139,53.2171,92.5391,111.9153,76.0116,8.7077e-05,0.00011617,0.0,0 STARLINK-4683,1 53712U 22107N   22284.58334491  .00011617  00000-0  87077-4 0  9994,2 53712  53.2171  92.5391 0001139 111.9153  76.0116 15.73198607  5860,6727.899,91.533,350.53,348.99800000000016,0.0
53712.0,STARLINK-4683,PAYLOAD,2022-10-11 22:00:00,15.73164154,0.0001038,53.2139,90.8901,87.0146,189.8454,0.00054737,0.00076786,0.0,0 STARLINK-4683,1 53712U 22107N   22284.91667824  .00076786  00000-0  54737-3 0  9994,2 53712  53.2139  90.8901 0001038  87.0146 189.8454 15.73164154  1308,6727.996999999999,91.535,350.561,349.164,0.0
53712.0,STARLINK-4683,PAYLOAD,2022-10-12 06:00:00,15.73182952,9.96e-05,53.2149,89.2387,99.8896,265.881,-2.8322e-06,-1.016e-05,0.0,0 STARLINK-4683,1 53712U 22107N   22285.25001157 -.00001016  00000-0 -28322-5 0  9992,2 53712  53.2149  89.2387 0000996  99.8896 265.8810 15.73182952  5978,6727.944,91.534,350.47900000000016,349.139,0.0
53712.0,STARLINK-4683,PAYLOAD,2022-10-12 14:00:01,15.73134031,0.0001058,53.216,87.5898,101.7773,352.9076,0.0015214,0.00217913,0.0,0 STARLINK-4683,1 53712U 22107N   22285.58334491  .00217913  00000-0  15214-2 0  9994,2 53712  53.2160  87.5898 0001058 101.7773 352.9076 15.73134031  1306,6728.083000000001,91.537,350.66,349.236,0.0
53712.0,STARLINK-4683,PAYLOAD,2022-10-12 22:00:00,15.73253346,0.0001075,53.2168,85.9426,91.1855,92.4524,-0.00055233,-0.00077598,0.0,0 STARLINK-4683,1 53712U 22107N   22285.91667824 -.00077598  00000-0 -55233-3 0  9991,2 53712  53.2168  85.9426 0001075  91.1855  92.4524 15.73253346  6079,6727.743,91.53,350.331,348.885,0.0
53712.0,STARLINK-4683,PAYLOAD,2022-10-13 14:00:01,15.73204683,0.0001453,53.2172,82.6419,94.7611,266.7702,-7.416599999999999e-06,-1.661e-05,0.0,0 STARLINK-4683,1 53712U 22107N   22286.58334491 -.00001661  00000-0 -74166-5 0  9992,2 53712  53.2172  82.6419 0001453  94.7611 266.7702 15.73204683  1304,6727.882,91.533,350.724,348.769,0.0
53712.0,STARLINK-4683,PAYLOAD,2022-10-13 20:00:01,15.7317687,0.0001163,53.2169,81.406,82.5238,255.7911,0.00025295,0.00034992,0.0,0 STARLINK-4683,1 53712U 22107N   22286.83335648  .00034992  00000-0  25295-3 0  9993,2 53712  53.2169  81.4060 0001163  82.5238 255.7911 15.73176870  6229,6727.9609999999975,91.535,350.6090000000001,349.0440000000001,0.0
53712.0,STARLINK-4683,PAYLOAD,2022-10-13 22:00:00,15.73178613,0.0001075,53.2169,80.9936,80.8668,9.6104,0.00029993,0.00041643,0.0,0 STARLINK-4683,1 53712U 22107N   22286.91667824  .00041643  00000-0  29993-3 0  9996,2 53712  53.2169  80.9936 0001075  80.8668   9.6104 15.73178613  1306,6727.956,91.534,350.5440000000001,349.098,0.0
53712.0,STARLINK-4683,PAYLOAD,2022-10-14 14:00:01,15.73204463,0.0001007,53.2173,77.6934,81.0103,187.3236,9.1676e-07,-4.91e-06,0.0,0 STARLINK-4683,1 53712U 22107N   22287.58334491 -.00000491  00000-0  91676-6 0  9998,2 53712  53.2173  77.6934 0001007  81.0103 187.3236 15.73204463  1307,6727.882,91.533,350.425,349.07,0.0
